{"type": "FeatureCollection", "features": [ {"type": "Feature", "properties": {"norad_id": 44476, "name": "INTELSAT 39 (IS-39)", "group": "intelsat", "lat": -0.011832268359342991, "lon": -62.28976820874336, "alt_km": 35789.57700993665, "timestamp": "2025-12-03T10:52:57.118027+00:00", "meta": {"OBJECT_NAME": "INTELSAT 39 (IS-39)", "OBJECT_ID": "2019-049B", "EPOCH": "2025-12-03T02:03:57.662784", "MEAN_MOTION": 1.0027012, "ECCENTRICITY": 9.05e-05, "INCLINATION": 0.0158, "RA_OF_ASC_NODE": 313.3917, "ARG_OF_PERICENTER": 200.8805, "MEAN_ANOMALY": 10.8498, "EPHEMERIS_TYPE": 0, "CLASSIFICATION_TYPE": "U", "NORAD_CAT_ID": 44476, "ELEMENT_SET_NO": 999, "REV_AT_EPOCH": 2316, "BSTAR": 0, "MEAN_MOTION_DOT": 5.3e-07, "MEAN_MOTION_DDOT": 0}, "tle": {"line1": "1 44476U 19049B   25337.08608406  .00000053  00000+0  00000+0 0  9996", "line2": "2 44476   0.0158 313.3917 0000905 200.8805  10.8498  1.00270120 23160"}}, "geometry": {"type": "Point", "coordinates": [-62.28976820874336, -0.011832268359342991]}}, {"type": "Feature", "properties": {"norad_id": 46114, "name": "GALAXY 30 (G-30)", "group": "intelsat", "lat": 0.013002153106709203, "lon": 110.7469500127024, "alt_km": 35793.86578178446, "timestamp": "2025-12-03T10:52:57.118038+00:00", "meta": {"OBJECT_NAME": "GALAXY 30 (G-30)", "OBJECT_ID": "2020-056C", "EPOCH": "2025-12-03T04:16:38.815392", "MEAN_MOTION": 1.0027271, "ECCENTRICITY": 0.0002442, "INCLINATION": 0.0133, "RA_OF_ASC_NODE": 306.7885, "ARG_OF_PERICENTER": 305.1486, "MEAN_ANOMALY": 119.5046, "EPHEMERIS_TYPE": 0, "CLASSIFICATION_TYPE": "U", "NORAD_CAT_ID": 46114, "ELEMENT_SET_NO": 999, "REV_AT_EPOCH": 1932, "BSTAR": 0, "MEAN_MOTION_DOT": 5.6e-07, "MEAN_MOTION_DDOT": 0}, "tle": {"line1": "1 46114U 20056C   25337.17822703  .00000056  00000+0  00000+0 0  9998", "line2": "2 46114   0.0133 306.7885 0002442 305.1486 119.5046  1.00272710 19322"}}, "geometry": {"type": "Point", "coordinates": [110.7469500127024, 0.013002153106709203]}}, {"type": "Feature", "properties": {"norad_id": 54026, "name": "GALAXY 33 (G-33)", "group": "intelsat", "lat": 0.027167589789656787, "lon": 102.75363759892291, "alt_km": 35792.543989985366, "timestamp": "2025-12-03T10:52:57.118051+00:00", "meta": {"OBJECT_NAME": "GALAXY 33 (G-33)", "OBJECT_ID": "2022-128A", "EPOCH": "2025-12-02T16:34:35.368032", "MEAN_MOTION": 1.00272458, "ECCENTRICITY": 0.0001946, "INCLINATION": 0.0146, "RA_OF_ASC_NODE": 335.983, "ARG_OF_PERICENTER": 271.3406, "MEAN_ANOMALY": 300.1238, "EPHEMERIS_TYPE": 0, "CLASSIFICATION_TYPE": "U", "NORAD_CAT_ID": 54026, "ELEMENT_SET_NO": 999, "REV_AT_EPOCH": 1177, "BSTAR": 0, "MEAN_MOTION_DOT": 9.9e-07, "MEAN_MOTION_DDOT": 0}, "tle": {"line1": "1 54026U 22128A   25336.69068713  .00000099  00000+0  00000+0 0  9997", "line2": "2 54026   0.0146 335.9830 0001946 271.3406 300.1238  1.00272458 11776"}}, "geometry": {"type": "Point", "coordinates": [102.75363759892291, 0.027167589789656787]}}, {"type": "Feature", "properties": {"norad_id": 54027, "name": "GALAXY 34 (G-34)", "group": "intelsat", "lat": 0.022675890433394068, "lon": 106.75450580450708, "alt_km": 35790.30612934932, "timestamp": "2025-12-03T10:52:57.118062+00:00", "meta": {"OBJECT_NAME": "GALAXY 34 (G-34)", "OBJECT_ID": "2022-128B", "EPOCH": "2025-12-03T02:06:18.447264", "MEAN_MOTION": 1.00273327, "ECCENTRICITY": 0.0001414, "INCLINATION": 0.0132, "RA_OF_ASC_NODE": 328.1022, "ARG_OF_PERICENTER": 280.0818, "MEAN_ANOMALY": 86.5825, "EPHEMERIS_TYPE": 0, "CLASSIFICATION_TYPE": "U", "NORAD_CAT_ID": 54027, "ELEMENT_SET_NO": 999, "REV_AT_EPOCH": 1194, "BSTAR": 0, "MEAN_MOTION_DOT": 7.8e-07, "MEAN_MOTION_DDOT": 0}, "tle": {"line1": "1 54027U 22128B   25337.08771351  .00000078  00000+0  00000+0 0  9998", "line2": "2 54027   0.0132 328.1022 0001414 280.0818  86.5825  1.00273327 11945"}}, "geometry": {"type": "Point", "coordinates": [106.75450580450708, 0.022675890433394068]}}, {"type": "Feature", "properties": {"norad_id": 54243, "name": "GALAXY 31 (G-31)", "group": "intelsat", "lat": 0.022174106102694564, "lon": 114.72464420559534, "alt_km": 35793.97128925632, "timestamp": "2025-12-03T10:52:57.118074+00:00", "meta": {"OBJECT_NAME": "GALAXY 31 (G-31)", "OBJECT_ID": "2022-153A", "EPOCH": "2025-12-03T04:16:38.815392", "MEAN_MOTION": 1.00271866, "ECCENTRICITY": 0.0002104, "INCLINATION": 0.0124, "RA_OF_ASC_NODE": 351.7237, "ARG_OF_PERICENTER": 276.0677, "MEAN_ANOMALY": 107.6222, "EPHEMERIS_TYPE": 0, "CLASSIFICATION_TYPE": "U", "NORAD_CAT_ID": 54243, "ELEMENT_SET_NO": 999, "REV_AT_EPOCH": 516, "BSTAR": 0, "MEAN_MOTION_DOT": 0, "MEAN_MOTION_DDOT": 0}, "tle": {"line1": "1 54243U 22153A   25337.17822703  .00000000  00000+0  00000+0 0  9999", "line2": "2 54243   0.0124 351.7237 0002104 276.0677 107.6222  1.00271866  5160"}}, "geometry": {"type": "Point", "coordinates": [114.72464420559534, 0.022174106102694564]}}, {"type": "Feature", "properties": {"norad_id": 54244, "name": "GALAXY 32 (G-32)", "group": "intelsat", "lat": -0.0021707787807781517, "lon": 144.747802238518, "alt_km": 35796.37422785151, "timestamp": "2025-12-03T10:52:57.118085+00:00", "meta": {"OBJECT_NAME": "GALAXY 32 (G-32)", "OBJECT_ID": "2022-153B", "EPOCH": "2025-12-03T03:02:59.506368", "MEAN_MOTION": 1.00270437, "ECCENTRICITY": 0.000252, "INCLINATION": 0.0101, "RA_OF_ASC_NODE": 324.9006, "ARG_OF_PERICENTER": 339.0603, "MEAN_ANOMALY": 83.0127, "EPHEMERIS_TYPE": 0, "CLASSIFICATION_TYPE": "U", "NORAD_CAT_ID": 54244, "ELEMENT_SET_NO": 999, "REV_AT_EPOCH": 1117, "BSTAR": 0, "MEAN_MOTION_DOT": -1.55e-06, "MEAN_MOTION_DDOT": 0}, "tle": {"line1": "1 54244U 22153B   25337.12707762 -.00000155  00000+0  00000+0 0  9994", "line2": "2 54244   0.0101 324.9006 0002520 339.0603  83.0127  1.00270437 11175"}}, "geometry": {"type": "Point", "coordinates": [144.747802238518, -0.0021707787807781517]}}, {"type": "Feature", "properties": {"norad_id": 54741, "name": "GALAXY 35 (G-35)", "group": "intelsat", "lat": 0.002516269380206386, "lon": 142.6062522729367, "alt_km": 35792.5647879106, "timestamp": "2025-12-03T10:52:57.118097+00:00", "meta": {"OBJECT_NAME": "GALAXY 35 (G-35)", "OBJECT_ID": "2022-170A", "EPOCH": "2025-12-03T03:02:22.064928", "MEAN_MOTION": 1.00269345, "ECCENTRICITY": 0.0002838, "INCLINATION": 0.0154, "RA_OF_ASC_NODE": 332.7141, "ARG_OF_PERICENTER": 288.7802, "MEAN_ANOMALY": 123.2009, "EPHEMERIS_TYPE": 0, "CLASSIFICATION_TYPE": "U", "NORAD_CAT_ID": 54741, "ELEMENT_SET_NO": 999, "REV_AT_EPOCH": 1092, "BSTAR": 0, "MEAN_MOTION_DOT": 0, "MEAN_MOTION_DDOT": 0}, "tle": {"line1": "1 54741U 22170A   25337.12664427  .00000000  00000+0  00000+0 0  9993", "line2": "2 54741   0.0154 332.7141 0002838 288.7802 123.2009  1.00269345 10929"}}, "geometry": {"type": "Point", "coordinates": [142.6062522729367, 0.002516269380206386]}}, {"type": "Feature", "properties": {"norad_id": 54742, "name": "GALAXY 36 (G-36)", "group": "intelsat", "lat": -0.02056142399915233, "lon": 146.75176588449628, "alt_km": 35786.96141989681, "timestamp": "2025-12-03T10:52:57.118108+00:00", "meta": {"OBJECT_NAME": "GALAXY 36 (G-36)", "OBJECT_ID": "2022-170B", "EPOCH": "2025-12-03T03:03:36.946080", "MEAN_MOTION": 1.00270439, "ECCENTRICITY": 5.99e-05, "INCLINATION": 0.0172, "RA_OF_ASC_NODE": 262.9394, "ARG_OF_PERICENTER": 344.6619, "MEAN_ANOMALY": 141.5291, "EPHEMERIS_TYPE": 0, "CLASSIFICATION_TYPE": "U", "NORAD_CAT_ID": 54742, "ELEMENT_SET_NO": 999, "REV_AT_EPOCH": 1080, "BSTAR": 0, "MEAN_MOTION_DOT": -1.66e-06, "MEAN_MOTION_DDOT": 0}, "tle": {"line1": "1 54742U 22170B   25337.12751095 -.00000166  00000+0  00000+0 0  9996", "line2": "2 54742   0.0172 262.9394 0000599 344.6619 141.5291  1.00270439 10803"}}, "geometry": {"type": "Point", "coordinates": [146.75176588449628, -0.02056142399915233]}}, {"type": "Feature", "properties": {"norad_id": 57493, "name": "GALAXY 37 (G-37)", "group": "intelsat", "lat": 0.012299458643218436, "lon": 108.75602364915065, "alt_km": 35794.743171810784, "timestamp": "2025-12-03T10:52:57.118119+00:00", "meta": {"OBJECT_NAME": "GALAXY 37 (G-37)", "OBJECT_ID": "2023-112A", "EPOCH": "2025-12-03T04:16:38.815392", "MEAN_MOTION": 1.00272942, "ECCENTRICITY": 0.0002466, "INCLINATION": 0.0158, "RA_OF_ASC_NODE": 300.4225, "ARG_OF_PERICENTER": 317.9605, "MEAN_ANOMALY": 111.0643, "EPHEMERIS_TYPE": 0, "CLASSIFICATION_TYPE": "U", "NORAD_CAT_ID": 57493, "ELEMENT_SET_NO": 999, "REV_AT_EPOCH": 857, "BSTAR": 0, "MEAN_MOTION_DOT": 6.7e-07, "MEAN_MOTION_DDOT": 0}, "tle": {"line1": "1 57493U 23112A   25337.17822703  .00000067  00000+0  00000+0 0  9998", "line2": "2 57493   0.0158 300.4225 0002466 317.9605 111.0643  1.00272942  8572"}}, "geometry": {"type": "Point", "coordinates": [108.75602364915065, 0.012299458643218436]}}]}